$$SOE
2460154.500000000, A.D. 2023-Jul-29 00:00:00.0000, -2.108168479379923E+08, -2.300029612561638E+08, -6.797970477449477E+06,
2460161.500000000, A.D. 2023-Aug-05 00:00:00.0000, -2.027582134194749E+08, -2.378691848653299E+08, -2.732585176657036E+06,
2460168.500000000, A.D. 2023-Aug-12 00:00:00.0000, -1.943773373408770E+08, -2.453573356558926E+08, 1.337150176926717E+06,
2460175.500000000, A.D. 2023-Aug-19 00:00:00.0000, -1.856888881093624E+08, -2.524572087436819E+08, 5.404775601504490E+06,
2460182.500000000, A.D. 2023-Aug-26 00:00:00.0000, -1.767077825603365E+08, -2.591591518768538E+08, 9.463887211018369E+06,
2460189.500000000, A.D. 2023-Sep-02 00:00:00.0000, -1.674491740431566E+08, -2.654540601421385E+08, 1.350813937000109E+07,
2460196.500000000, A.D. 2023-Sep-09 00:00:00.0000, -1.579284414983503E+08, -2.713333712648348E+08, 1.753124666429880E+07,
2460203.500000000, A.D. 2023-Sep-16 00:00:00.0000, -1.481611792794025E+08, -2.767890616178345E+08, 2.152698570338503E+07,
2460210.500000000, A.D. 2023-Sep-23 00:00:00.0000, -1.381631872235731E+08, -2.818136427046488E+08, 2.548919677395353E+07,
2460217.500000000, A.D. 2023-Sep-30 00:00:00.0000, -1.279504612322482E+08, -2.864001569717712E+08, 2.941178550633810E+07,
2460224.500000000, A.D. 2023-Oct-07 00:00:00.0000, -1.175391866343759E+08, -2.905421735330583E+08, 3.328872475673017E+07,
2460231.500000000, A.D. 2023-Oct-14 00:00:00.0000, -1.069457332117888E+08, -2.942337871569675E+08, 3.711405636913715E+07,
2460238.500000000, A.D. 2023-Oct-21 00:00:00.0000, -9.618664857874641E+07, -2.974696189521319E+08, 4.088189268217908E+07,
2460245.500000000, A.D. 2023-Oct-28 00:00:00.0000, -8.527865126272121E+07, -3.002448165247533E+08, 4.458641812653206E+07,
2460252.500000000, A.D. 2023-Nov-04 00:00:00.0000, -7.423862465827040E+07, -3.025550544053984E+08, 4.822189099443942E+07,
2460259.500000000, A.D. 2023-Nov-11 00:00:00.0000, -6.308361159724138E+07, -3.043965353671991E+08, 5.178264534455633E+07,
2460266.500000000, A.D. 2023-Nov-18 00:00:00.0000, -5.183080923464891E+07, -3.057659927174153E+08, 5.526309304362761E+07,
2460273.500000000, A.D. 2023-Nov-25 00:00:00.0000, -4.049756409293561E+07, -3.066606935556812E+08, 5.865772596594286E+07,
2460280.500000000, A.D. 2023-Dec-02 00:00:00.0000, -2.910136715042815E+07, -3.070784430267273E+08, 6.196111837377907E+07,
2460287.500000000, A.D. 2023-Dec-09 00:00:00.0000, -1.765984881085511E+07, -3.070175896414531E+08, 6.516792949492373E+07,
2460294.500000000, A.D. 2023-Dec-16 00:00:00.0000, -6.190773380538950E+06, -3.064770316638879E+08, 6.827290629979625E+07,
2460301.500000000, A.D. 2023-Dec-23 00:00:00.0000, 5.287967383501642E+06, -3.054562238817361E+08, 7.127088652931744E+07,
2460308.500000000, A.D. 2023-Dec-30 00:00:00.0000, 1.675836040542647E+07, -3.039551837112924E+08, 7.415680220806354E+07,
2460315.500000000, A.D. 2024-Jan-06 00:00:00.0000, 2.820227542503505E+07, -3.019744989914061E+08, 7.692568363662183E+07,
2460322.500000000, A.D. 2024-Jan-13 00:00:00.0000, 3.960147040803090E+07, -2.995153392647727E+08, 7.957266344882643E+07,
2460329.500000000, A.D. 2024-Jan-20 00:00:00.0000, 5.093759955918731E+07, -2.965794674527369E+08, 8.209298090016706E+07,
2460336.500000000, A.D. 2024-Jan-27 00:00:00.0000, 6.219222201524469E+07, -2.931692512565435E+08, 8.448198665359583E+07,
2460343.500000000, A.D. 2024-Feb-03 00:00:00.0000, 7.334681089853682E+07, -2.892876752112995E+08, 8.673514805079579E+07,
2460350.500000000, A.D. 2024-Feb-10 00:00:00.0000, 8.438276312210879E+07, -2.849383536548568E+08, 8.884805484603050E+07,
2460357.500000000, A.D. 2024-Feb-17 00:00:00.0000, 9.528141020133744E+07, -2.801255445676992E+08, 9.081642541669238E+07,
2460364.500000000, A.D. 2024-Feb-24 00:00:00.0000, 1.060240302266150E+08, -2.748541642241595E+08, 9.263611347316828E+07,
2460371.500000000, A.D. 2024-Mar-02 00:00:00.0000, 1.165918611479568E+08, -2.691298026323257E+08, 9.430311528492826E+07,
2460378.500000000, A.D. 2024-Mar-09 00:00:00.0000, 1.269661156348354E+08, -2.629587397595167E+08, 9.581357742446101E+07,
2460385.500000000, A.D. 2024-Mar-16 00:00:00.0000, 1.371279980341325E+08, -2.563479622676410E+08, 9.716380502423738E+07,
2460392.500000000, A.D. 2024-Mar-23 00:00:00.0000, 1.470587234565343E+08, -2.493051795566789E+08, 9.835027065762605E+07,
2460399.500000000, A.D. 2024-Mar-30 00:00:00.0000, 1.567395368925644E+08, -2.418388390364722E+08, 9.936962405691803E+07,
2460406.500000000, A.D. 2024-Apr-06 00:00:00.0000, 1.661517327619006E+08, -2.339581438747769E+08, 1.002187023819328E+08,
2460413.500000000, A.D. 2024-Apr-13 00:00:00.0000, 1.752766785949398E+08, -2.256730722544379E+08, 1.008945407972948E+08,
2460420.500000000, A.D. 2024-Apr-20 00:00:00.0000, 1.840958420365592E+08, -2.169943953194819E+08, 1.013943836784432E+08,
2460427.500000000, A.D. 2024-Apr-27 00:00:00.0000, 1.925908197899818E+08, -2.079336942075852E+08, 1.017156965449003E+08,
2460434.500000000, A.D. 2024-May-04 00:00:00.0000, 2.007433687193671E+08, -1.985033766843590E+08, 1.018561786504006E+08,
2460441.500000000, A.D. 2024-May-11 00:00:00.0000, 2.085354394766786E+08, -1.887166932698733E+08, 1.018137761867559E+08,
2460448.500000000, A.D. 2024-May-18 00:00:00.0000, 2.159492128561743E+08, -1.785877526018264E+08, 1.015866960757282E+08,
2460455.500000000, A.D. 2024-May-25 00:00:00.0000, 2.229671390127717E+08, -1.681315357859777E+08, 1.011734203182261E+08,
2460462.500000000, A.D. 2024-Jun-01 00:00:00.0000, 2.295719797014705E+08, -1.573639095106104E+08, 1.005727208523175E+08,
2460469.500000000, A.D. 2024-Jun-08 00:00:00.0000, 2.357468538652925E+08, -1.463016376397693E+08, 9.978367484537929E+07,
2460476.500000000, A.D. 2024-Jun-15 00:00:00.0000, 2.414752870365427E+08, -1.349623904053508E+08, 9.880568037025438E+07,
2460483.500000000, A.D. 2024-Jun-22 00:00:00.0000, 2.467412635904954E+08, -1.233647496695028E+08, 9.763847258960706E+07,
2460490.500000000, A.D. 2024-Jun-29 00:00:00.0000, 2.515292797409038E+08, -1.115282117064073E+08, 9.628214041439688E+07,
2460497.500000000, A.D. 2024-Jul-06 00:00:00.0000, 2.558243998945694E+08, -9.947318957470872E+07, 9.473714308990705E+07,
2460504.500000000, A.D. 2024-Jul-13 00:00:00.0000, 2.596123182511082E+08, -8.722101183101289E+07, 9.300432664457259E+07,
2460511.500000000, A.D. 2024-Jul-20 00:00:00.0000, 2.628794235594776E+08, -7.479391599514814E+07, 9.108494034885058E+07,
2460518.500000000, A.D. 2024-Jul-27 00:00:00.0000, 2.656128662232885E+08, -6.221503727402774E+07, 8.898065302058372E+07,
2460525.500000000, A.D. 2024-Aug-03 00:00:00.0000, 2.678006278206773E+08, -4.950839245665108E+07, 8.669356895759089E+07,
2460532.500000000, A.D. 2024-Aug-10 00:00:00.0000, 2.694315929377403E+08, -3.669885851769608E+07, 8.422624330047688E+07,
2460539.500000000, A.D. 2024-Aug-17 00:00:00.0000, 2.704956230321170E+08, -2.381214544324213E+07, 8.158169662457462E+07,
2460546.500000000, A.D. 2024-Aug-24 00:00:00.0000, 2.709836319561419E+08, -1.087476284676907E+07, 7.876342854219145E+07,
2460553.500000000, A.D. 2024-Aug-31 00:00:00.0000, 2.708876627855096E+08, 2.086019995550770E+06, 7.577543006986713E+07,
2460560.500000000, A.D. 2024-Sep-07 00:00:00.0000, 2.702009657705834E+08, 1.504222121595814E+07, 7.262219449020499E+07,
2460567.500000000, A.D. 2024-Sep-14 00:00:00.0000, 2.689180768626103E+08, 2.796520189259766E+07, 6.930872651825915E+07,
2460574.500000000, A.D. 2024-Sep-21 00:00:00.0000, 2.670348940874431E+08, 4.082573078489541E+07, 6.584054972953857E+07,
2460581.500000000, A.D. 2024-Sep-28 00:00:00.0000, 2.645487505201896E+08, 5.359405527495831E+07, 6.222371176627351E+07,
2460588.500000000, A.D. 2024-Oct-05 00:00:00.0000, 2.614584866818212E+08, 6.623997866300877E+07, 5.846478670242018E+07,
2460595.500000000, A.D. 2024-Oct-12 00:00:00.0000, 2.577645210697657E+08, 7.873294685844995E+07, 5.457087455710620E+07,
2460602.500000000, A.D. 2024-Oct-19 00:00:00.0000, 2.534689160856831E+08, 9.104214415335855E+07, 5.054959781762720E+07,
2460609.500000000, A.D. 2024-Oct-26 00:00:00.0000, 2.485754382900831E+08, 1.031365971181748E+08, 4.640909464788115E+07,
2460616.500000000, A.D. 2024-Nov-02 00:00:00.0000, 2.430896121674149E+08, 1.149852861877724E+08, 4.215800851258872E+07,
2460623.500000000, A.D. 2024-Nov-09 00:00:00.0000, 2.370187664140366E+08, 1.265572645378581E+08, 3.780547401447168E+07,
2460630.500000000, A.D. 2024-Nov-16 00:00:00.0000, 2.303720717045704E+08, 1.378217836792980E+08, 3.336109878833938E+07,
2460637.500000000, A.D. 2024-Nov-23 00:00:00.0000, 2.231605689458514E+08, 1.487484249870136E+08, 2.883494133155173E+07,
2460644.500000000, A.D. 2024-Nov-30 00:00:00.0000, 2.153971872404057E+08, 1.593072362273819E+08, 2.423748467954006E+07,
2460651.500000000, A.D. 2024-Dec-07 00:00:00.0000, 2.070967510675666E+08, 1.694688724540964E+08, 1.957960590157744E+07,
2460658.500000000, A.D. 2024-Dec-14 00:00:00.0000, 1.982759751667895E+08, 1.792047412863201E+08, 1.487254161133181E+07,
2460665.500000000, A.D. 2024-Dec-21 00:00:00.0000, 1.889534440835073E+08, 1.884871499977872E+08, 1.012784970262825E+07,
2460672.500000000, A.D. 2024-Dec-28 00:00:00.0000, 1.791495778190150E+08, 1.972894500170511E+08, 5.357367059072822E+06,
2460679.500000000, A.D. 2025-Jan-04 00:00:00.0000, 1.688865858197011E+08, 2.055861796354248E+08, 5.731634229180664E+05,
2460686.500000000, A.D. 2025-Jan-11 00:00:00.0000, 1.581884072610523E+08, 2.133532049107735E+08, -4.212507969912589E+06,
2460693.500000000, A.D. 2025-Jan-18 00:00:00.0000, 1.470806366774375E+08, 2.205678561659579E+08, -8.987262585678861E+06,
2460700.500000000, A.D. 2025-Jan-25 00:00:00.0000, 1.355904353958488E+08, 2.272090579631686E+08, -1.373863920780940E+07,
2460707.500000000, A.D. 2025-Feb-01 00:00:00.0000, 1.237464294549093E+08, 2.332574509262409E+08, -1.845415646536705E+07,
2460714.500000000, A.D. 2025-Feb-08 00:00:00.0000, 1.115785948142009E+08, 2.386955038746110E+08, -2.312137071879236E+07,
2460721.500000000, A.D. 2025-Feb-15 00:00:00.0000, 9.911813084290057E+07, 2.435076147640864E+08, -2.772793471459246E+07,
$$EOE